[{"OBJECT_NAME":"STARLINK-5946","OBJECT_ID":"2023-042E","EPOCH":"2026-03-09T22:26:29.670432","MEAN_MOTION":15.02542872,"ECCENTRICITY":0.00012305,"INCLINATION":43.005,"RA_OF_ASC_NODE":55.0933,"ARG_OF_PERICENTER":264.5792,"MEAN_ANOMALY":95.491,"EPHEMERIS_TYPE":0,"CLASSIFICATION_TYPE":"U","NORAD_CAT_ID":55990,"ELEMENT_SET_NO":999,"REV_AT_EPOCH":16294,"BSTAR":3.2179568e-5,"MEAN_MOTION_DOT":2.31e-6,"MEAN_MOTION_DDOT":0},{"OBJECT_NAME":"FENGYUN 1C DEB","OBJECT_ID":"1999-025QY","EPOCH":"2026-03-09T17:49:58.428768","MEAN_MOTION":14.85185603,"ECCENTRICITY":0.01589258,"INCLINATION":99.2245,"RA_OF_ASC_NODE":8.2998,"ARG_OF_PERICENTER":58.4769,"MEAN_ANOMALY":303.1855,"EPHEMERIS_TYPE":0,"CLASSIFICATION_TYPE":"U","NORAD_CAT_ID":30095,"ELEMENT_SET_NO":999,"REV_AT_EPOCH":624,"BSTAR":0.002192592,"MEAN_MOTION_DOT":0.0002358,"MEAN_MOTION_DDOT":0}]
